[{"OBJECT_NAME":"STARLINK-34750","OBJECT_ID":"2025-165F","EPOCH":"2026-03-09T19:29:08.504736","MEAN_MOTION":15.05646009,"ECCENTRICITY":0.00012089,"INCLINATION":97.603,"RA_OF_ASC_NODE":147.4231,"ARG_OF_PERICENTER":103.575,"MEAN_ANOMALY":256.5612,"EPHEMERIS_TYPE":0,"CLASSIFICATION_TYPE":"U","NORAD_CAT_ID":65061,"ELEMENT_SET_NO":999,"REV_AT_EPOCH":3481,"BSTAR":0.00048405218,"MEAN_MOTION_DOT":6.93e-5,"MEAN_MOTION_DDOT":0},{"OBJECT_NAME":"OKEAN-3","OBJECT_ID":"1991-039A","EPOCH":"2026-03-09T19:29:17.530944","MEAN_MOTION":15.0480588,"ECCENTRICITY":0.00139411,"INCLINATION":82.519,"RA_OF_ASC_NODE":336.7249,"ARG_OF_PERICENTER":337.9296,"MEAN_ANOMALY":22.1329,"EPHEMERIS_TYPE":0,"CLASSIFICATION_TYPE":"U","NORAD_CAT_ID":21397,"ELEMENT_SET_NO":999,"REV_AT_EPOCH":86505,"BSTAR":0.00031884915,"MEAN_MOTION_DOT":4.536e-5,"MEAN_MOTION_DDOT":0}]
